STARLINK-5421           
1 54799U 22175AT  26068.24548497  .00000563  00000+0  53428-4 0  9995
2 54799  53.2189  21.0777 0001344  87.0916 273.0230 15.08841272180207
LEMUR-2-STELLA          
1 60533U 24149BT  26068.72657350  .00013685  00000+0  85776-3 0  9992
2 60533  97.6764 150.9122 0001299  95.1117 265.0260 15.09464064 85488
